SL-16 R/B               
1 25400U 98043G   26009.58351463  .00000093  00000+0  57973-4 0  9993
2 25400  98.8164 322.5630 0009748 179.9047 180.2136 14.26033574430569
SL-16 R/B               
1 25407U 98045B   26009.52376016 -.00000165  00000+0 -59434-4 0  9993
2 25407  71.0122 305.9976 0005356 127.7399 232.4210 14.16180445418729
ISS (ZARYA)             
1 25544U 98067A   26009.46765808  .00010469  00000+0  19647-3 0  9990
2 25544  51.6332   5.1965 0007664 358.8636   1.2334 15.49195154547159
CZ-4B R/B               
1 25732U 99025C   26009.62643696  .00000054  00000+0  46534-4 0  9997
2 25732  98.6730  55.2773 0037615 153.4679 320.1167 14.18251400379791
OKEAN-O                 
1 25860U 99039A   26009.64080239  .00000829  00000+0  11589-3 0  9995
2 25860  97.9560  70.0961 0001563 111.2403 248.8976 14.80219516425652
SL-16 R/B               
1 25861U 99039B   26009.60915662  .00000661  00000+0  90776-4 0  9999
2 25861  98.0085  68.7569 0016165  89.4781 270.8284 14.81635347428110
DELTA 2 R/B             
1 25876U 99041E   26009.61103661  .00003049  00000+0  52780-3 0  9992
2 25876  51.7602 177.1787 0503848 173.9173 186.8196 14.11521201354681
HELIOS 1B               
1 25977U 99064A   26009.65523285  .00002320  00000+0  26280-3 0  9998
2 25977  98.1743 270.1503 0000361 106.1284 253.9971 14.87421656676485
TERRA                   
1 25994U 99068A   26009.62052588  .00000499  00000+0  11094-3 0  9993
2 25994  97.9709  65.2763 0002717  36.6302  80.0969 14.60939669386459
SL-16 R/B               
1 26070U 00006B   26009.66507652 -.00000149  00000+0 -51439-4 0  9996
2 26070  71.0010 221.9424 0019002 271.2965  88.5981 14.15815660340209
TITAN 4B R/B            
1 26474U 00047B   26009.65007476  .00003817  00000+0  24528-3 0  9998
2 26474  67.9878 206.4562 0037238 109.8831 250.6337 15.09016608384005
ENVISAT                 
1 27386U 02009A   26005.89559443  .00000193  00000+0  76295-4 0  9992
2 27386  98.3632 321.0279 0001078  90.4272 337.3404 14.39010190250147
