CCSDS_OMM_VERS = 2.0
CREATION_DATE  = 
ORIGINATOR     = 

OBJECT_NAME    = SL-16 R/B
OBJECT_ID      = 1998-043G
CENTER_NAME    = EARTH
REF_FRAME      = TEME
TIME_SYSTEM    = UTC
MEAN_ELEMENT_THEORY = SGP/SGP4

EPOCH          = 2026-01-09T14:00:15.664032
MEAN_MOTION    = 14.26033574
ECCENTRICITY   = .00097485
INCLINATION    = 98.8164
RA_OF_ASC_NODE = 322.5630
ARG_OF_PERICENTER = 179.9047
MEAN_ANOMALY   = 180.2136

EPHEMERIS_TYPE = 0
CLASSIFICATION_TYPE = U
NORAD_CAT_ID   = 25400
ELEMENT_SET_NO = 999
REV_AT_EPOCH   = 43056
BSTAR          = .57973487E-4
MEAN_MOTION_DOT = .93E-6
MEAN_MOTION_DDOT = 0

CCSDS_OMM_VERS = 2.0
CREATION_DATE  = 
ORIGINATOR     = 

OBJECT_NAME    = SL-16 R/B
OBJECT_ID      = 1998-045B
CENTER_NAME    = EARTH
REF_FRAME      = TEME
TIME_SYSTEM    = UTC
MEAN_ELEMENT_THEORY = SGP/SGP4

EPOCH          = 2026-01-09T12:34:12.877824
MEAN_MOTION    = 14.16180445
ECCENTRICITY   = .00053561
INCLINATION    = 71.0122
RA_OF_ASC_NODE = 305.9976
ARG_OF_PERICENTER = 127.7399
MEAN_ANOMALY   = 232.4210

EPHEMERIS_TYPE = 0
CLASSIFICATION_TYPE = U
NORAD_CAT_ID   = 25407
ELEMENT_SET_NO = 999
REV_AT_EPOCH   = 41872
BSTAR          = -.59434256E-4
MEAN_MOTION_DOT = -.165E-5
MEAN_MOTION_DDOT = 0

CCSDS_OMM_VERS = 2.0
CREATION_DATE  = 
ORIGINATOR     = 

OBJECT_NAME    = ISS (ZARYA)
OBJECT_ID      = 1998-067A
CENTER_NAME    = EARTH
REF_FRAME      = TEME
TIME_SYSTEM    = UTC
MEAN_ELEMENT_THEORY = SGP/SGP4

EPOCH          = 2026-01-09T11:13:25.658112
MEAN_MOTION    = 15.49195154
ECCENTRICITY   = .00076641
INCLINATION    = 51.6332
RA_OF_ASC_NODE = 5.1965
ARG_OF_PERICENTER = 358.8636
MEAN_ANOMALY   = 1.2334

EPHEMERIS_TYPE = 0
CLASSIFICATION_TYPE = U
NORAD_CAT_ID   = 25544
ELEMENT_SET_NO = 999
REV_AT_EPOCH   = 54715
BSTAR          = .19647107E-3
MEAN_MOTION_DOT = .10469E-3
MEAN_MOTION_DDOT = 0

CCSDS_OMM_VERS = 2.0
CREATION_DATE  = 
ORIGINATOR     = 

OBJECT_NAME    = CZ-4B R/B
OBJECT_ID      = 1999-025C
CENTER_NAME    = EARTH
REF_FRAME      = TEME
TIME_SYSTEM    = UTC
MEAN_ELEMENT_THEORY = SGP/SGP4

EPOCH          = 2026-01-09T15:02:04.153344
MEAN_MOTION    = 14.18251400
ECCENTRICITY   = .00376156
INCLINATION    = 98.6730
RA_OF_ASC_NODE = 55.2773
ARG_OF_PERICENTER = 153.4679
MEAN_ANOMALY   = 320.1167

EPHEMERIS_TYPE = 0
CLASSIFICATION_TYPE = U
NORAD_CAT_ID   = 25732
ELEMENT_SET_NO = 999
REV_AT_EPOCH   = 37979
BSTAR          = .46533814E-4
MEAN_MOTION_DOT = .54E-6
MEAN_MOTION_DDOT = 0

CCSDS_OMM_VERS = 2.0
CREATION_DATE  = 
ORIGINATOR     = 

OBJECT_NAME    = OKEAN-O
OBJECT_ID      = 1999-039A
CENTER_NAME    = EARTH
REF_FRAME      = TEME
TIME_SYSTEM    = UTC
MEAN_ELEMENT_THEORY = SGP/SGP4

EPOCH          = 2026-01-09T15:22:45.326496
MEAN_MOTION    = 14.80219516
ECCENTRICITY   = .00015631
INCLINATION    = 97.9560
RA_OF_ASC_NODE = 70.0961
ARG_OF_PERICENTER = 111.2403
MEAN_ANOMALY   = 248.8976

EPHEMERIS_TYPE = 0
CLASSIFICATION_TYPE = U
NORAD_CAT_ID   = 25860
ELEMENT_SET_NO = 999
REV_AT_EPOCH   = 42565
BSTAR          = .11589132E-3
MEAN_MOTION_DOT = .829E-5
MEAN_MOTION_DDOT = 0

CCSDS_OMM_VERS = 2.0
CREATION_DATE  = 
ORIGINATOR     = 

OBJECT_NAME    = SL-16 R/B
OBJECT_ID      = 1999-039B
CENTER_NAME    = EARTH
REF_FRAME      = TEME
TIME_SYSTEM    = UTC
MEAN_ELEMENT_THEORY = SGP/SGP4

EPOCH          = 2026-01-09T14:37:11.131968
MEAN_MOTION    = 14.81635347
ECCENTRICITY   = .00161653
INCLINATION    = 98.0085
RA_OF_ASC_NODE = 68.7569
ARG_OF_PERICENTER = 89.4781
MEAN_ANOMALY   = 270.8284

EPHEMERIS_TYPE = 0
CLASSIFICATION_TYPE = U
NORAD_CAT_ID   = 25861
ELEMENT_SET_NO = 999
REV_AT_EPOCH   = 42811
BSTAR          = .90775745E-4
MEAN_MOTION_DOT = .661E-5
MEAN_MOTION_DDOT = 0

CCSDS_OMM_VERS = 2.0
CREATION_DATE  = 
ORIGINATOR     = 

OBJECT_NAME    = DELTA 2 R/B
OBJECT_ID      = 1999-041E
CENTER_NAME    = EARTH
REF_FRAME      = TEME
TIME_SYSTEM    = UTC
MEAN_ELEMENT_THEORY = SGP/SGP4

EPOCH          = 2026-01-09T14:39:53.563104
MEAN_MOTION    = 14.11521201
ECCENTRICITY   = .05038489
INCLINATION    = 51.7602
RA_OF_ASC_NODE = 177.1787
ARG_OF_PERICENTER = 173.9173
MEAN_ANOMALY   = 186.8196

EPHEMERIS_TYPE = 0
CLASSIFICATION_TYPE = U
NORAD_CAT_ID   = 25876
ELEMENT_SET_NO = 999
REV_AT_EPOCH   = 35468
BSTAR          = .52779982E-3
MEAN_MOTION_DOT = .3049E-4
MEAN_MOTION_DDOT = 0

CCSDS_OMM_VERS = 2.0
CREATION_DATE  = 
ORIGINATOR     = 

OBJECT_NAME    = HELIOS 1B
OBJECT_ID      = 1999-064A
CENTER_NAME    = EARTH
REF_FRAME      = TEME
TIME_SYSTEM    = UTC
MEAN_ELEMENT_THEORY = SGP/SGP4

EPOCH          = 2026-01-09T15:43:32.118240
MEAN_MOTION    = 14.87421656
ECCENTRICITY   = .00003615
INCLINATION    = 98.1743
RA_OF_ASC_NODE = 270.1503
ARG_OF_PERICENTER = 106.1284
MEAN_ANOMALY   = 253.9971

EPHEMERIS_TYPE = 0
CLASSIFICATION_TYPE = U
NORAD_CAT_ID   = 25977
ELEMENT_SET_NO = 999
REV_AT_EPOCH   = 67648
BSTAR          = .26279578E-3
MEAN_MOTION_DOT = .232E-4
MEAN_MOTION_DDOT = 0

CCSDS_OMM_VERS = 2.0
CREATION_DATE  = 
ORIGINATOR     = 

OBJECT_NAME    = TERRA
OBJECT_ID      = 1999-068A
CENTER_NAME    = EARTH
REF_FRAME      = TEME
TIME_SYSTEM    = UTC
MEAN_ELEMENT_THEORY = SGP/SGP4

EPOCH          = 2026-01-09T14:53:33.436032
MEAN_MOTION    = 14.60939669
ECCENTRICITY   = .00027174
INCLINATION    = 97.9709
RA_OF_ASC_NODE = 65.2763
ARG_OF_PERICENTER = 36.6302
MEAN_ANOMALY   = 80.0969

EPHEMERIS_TYPE = 0
CLASSIFICATION_TYPE = U
NORAD_CAT_ID   = 25994
ELEMENT_SET_NO = 999
REV_AT_EPOCH   = 38645
BSTAR          = .11093876E-3
MEAN_MOTION_DOT = .499E-5
MEAN_MOTION_DDOT = 0

CCSDS_OMM_VERS = 2.0
CREATION_DATE  = 
ORIGINATOR     = 

OBJECT_NAME    = SL-16 R/B
OBJECT_ID      = 2000-006B
CENTER_NAME    = EARTH
REF_FRAME      = TEME
TIME_SYSTEM    = UTC
MEAN_ELEMENT_THEORY = SGP/SGP4

EPOCH          = 2026-01-09T15:57:42.611328
MEAN_MOTION    = 14.15815660
ECCENTRICITY   = .00190029
INCLINATION    = 71.0010
RA_OF_ASC_NODE = 221.9424
ARG_OF_PERICENTER = 271.2965
MEAN_ANOMALY   = 88.5981

EPHEMERIS_TYPE = 0
CLASSIFICATION_TYPE = U
NORAD_CAT_ID   = 26070
ELEMENT_SET_NO = 999
REV_AT_EPOCH   = 34020
BSTAR          = -.51438617E-4
MEAN_MOTION_DOT = -.149E-5
MEAN_MOTION_DDOT = 0

CCSDS_OMM_VERS = 2.0
CREATION_DATE  = 
ORIGINATOR     = 

OBJECT_NAME    = TITAN 4B R/B
OBJECT_ID      = 2000-047B
CENTER_NAME    = EARTH
REF_FRAME      = TEME
TIME_SYSTEM    = UTC
MEAN_ELEMENT_THEORY = SGP/SGP4

EPOCH          = 2026-01-09T15:36:06.459264
MEAN_MOTION    = 15.09016608
ECCENTRICITY   = .00372389
INCLINATION    = 67.9878
RA_OF_ASC_NODE = 206.4562
ARG_OF_PERICENTER = 109.8831
MEAN_ANOMALY   = 250.6337

EPHEMERIS_TYPE = 0
CLASSIFICATION_TYPE = U
NORAD_CAT_ID   = 26474
ELEMENT_SET_NO = 999
REV_AT_EPOCH   = 38400
BSTAR          = .24528405E-3
MEAN_MOTION_DOT = .3817E-4
MEAN_MOTION_DDOT = 0

CCSDS_OMM_VERS = 2.0
CREATION_DATE  = 
ORIGINATOR     = 

OBJECT_NAME    = ENVISAT
OBJECT_ID      = 2002-009A
CENTER_NAME    = EARTH
REF_FRAME      = TEME
TIME_SYSTEM    = UTC
MEAN_ELEMENT_THEORY = SGP/SGP4

EPOCH          = 2026-01-05T21:29:39.358752
MEAN_MOTION    = 14.39010190
ECCENTRICITY   = .00010782
INCLINATION    = 98.3632
RA_OF_ASC_NODE = 321.0279
ARG_OF_PERICENTER = 90.4272
MEAN_ANOMALY   = 337.3404

EPHEMERIS_TYPE = 0
CLASSIFICATION_TYPE = U
NORAD_CAT_ID   = 27386
ELEMENT_SET_NO = 999
REV_AT_EPOCH   = 25014
BSTAR          = .76294626E-4
MEAN_MOTION_DOT = .193E-5
MEAN_MOTION_DDOT = 0

